NORAD_CAT_ID,OBJECT_NAME,OBJECT_TYPE,EPOCH,MEAN_MOTION,ECCENTRICITY,INCLINATION,RA_OF_ASC_NODE,ARG_OF_PERICENTER,MEAN_ANOMALY,BSTAR,MEAN_MOTION_DOT,MEAN_MOTION_DDOT,TLE_LINE0,TLE_LINE1,TLE_LINE2,SEMIMAJOR_AXIS,PERIOD,APOGEE,PERIGEE,DECAYED
53592.0,STARLINK-4672,PAYLOAD,2023-04-18 19:51:15,15.08849516,0.0001021,53.2141,304.2025,71.4269,288.6834,0.00011149,1.487e-05,0.0,0 STARLINK-4672,1 53592U 22104E   23108.82725776  .00001487  00000-0  11149-3 0  9990,2 53592  53.2141 304.2025 0001021  71.4269 288.6834 15.08849516 36545,6917.851,95.437,540.423,539.01,0.0
53592.0,STARLINK-4672,PAYLOAD,2023-04-19 13:20:30,15.08837618,0.0001017,53.2152,300.9327,78.2904,281.8202,-4.9407e-05,-1.074e-05,0.0,0 STARLINK-4672,1 53592U 22104E   23109.55590278 -.00001074  00000-0 -49407-4 0  9991,2 53592  53.2152 300.9327 0001017  78.2904 281.8202 15.08837618 36657,6917.888,95.438,540.456,539.049,0.0
53592.0,STARLINK-4672,PAYLOAD,2023-04-19 19:42:02,15.08849544,9.03e-05,53.2141,299.7432,79.2899,280.8194,0.0001476,2.063e-05,0.0,0 STARLINK-4672,1 53592U 22104E   23109.82085667  .00002063  00000-0  14760-3 0  9992,2 53592  53.2141 299.7432 0000903  79.2899 280.8194 15.08849544 36698,6917.851,95.437,540.341,539.092,0.0
53592.0,STARLINK-4672,PAYLOAD,2023-04-20 05:14:20,15.08846464,7.02e-05,53.2136,297.9579,84.0541,276.0532,0.00014939,2.091e-05,0.0,0 STARLINK-4672,1 53592U 22104E   23110.21829630  .00002091  00000-0  14939-3 0  9992,2 53592  53.2136 297.9579 0000702  84.0541 276.0532 15.08846464 35734,6917.861,95.437,540.211,539.24,0.0
53592.0,STARLINK-4672,PAYLOAD,2023-04-20 11:35:53,15.08836944,0.0001546,53.2149,296.7695,93.6196,266.4973,5.0617e-06,-2.07e-06,0.0,0 STARLINK-4672,1 53592U 22104E   23110.48326261 -.00000207  00000-0  50617-5 0  9996,2 53592  53.2149 296.7695 0001546  93.6196 266.4973 15.08836944 36794,6917.89,95.438,540.824,538.685,0.0
53592.0,STARLINK-4672,PAYLOAD,2023-04-20 19:32:49,15.08835807,0.0001608,53.2154,295.2825,92.5244,267.5932,-2.6205e-05,-7.05e-06,0.0,0 STARLINK-4672,1 53592U 22104E   23110.81446421 -.00000705  00000-0 -26205-4 0  9993,2 53592  53.2154 295.2825 0001608  92.5244 267.5932 15.08835807 36840,6917.893,95.438,540.871,538.646,0.0
53592.0,STARLINK-4672,PAYLOAD,2023-04-21 13:02:04,15.0883687,0.0001028,53.2146,292.0099,84.3046,275.8063,6.6794e-05,7.75e-06,0.0,0 STARLINK-4672,1 53592U 22104E   23111.54310729  .00000775  00000-0  66794-4 0  9997,2 53592  53.2146 292.0099 0001028  84.3046 275.8063 15.08836870 35931,6917.89,95.438,540.466,539.044,0.0
53592.0,STARLINK-4672,PAYLOAD,2023-04-21 20:58:59,15.08846412,0.0001009,53.2148,290.5239,83.733,276.3777,0.00028605,4.268e-05,0.0,0 STARLINK-4672,1 53592U 22104E   23111.87430414  .00004268  00000-0  28605-3 0  9996,2 53592  53.2148 290.5239 0001009  83.7330 276.3777 15.08846412 37001,6917.861,95.437,540.424,539.028,0.0
53592.0,STARLINK-4672,PAYLOAD,2023-04-22 12:52:51,15.08840431,0.0001142,53.2156,287.5514,90.8162,269.296,0.0002062,2.995e-05,0.0,0 STARLINK-4672,1 53592U 22104E   23112.53670735  .00002995  00000-0  20620-3 0  9996,2 53592  53.2156 287.5514 0001142  90.8162 269.2960 15.08840431 37103,6917.879,95.438,540.534,538.954,0.0
53592.0,STARLINK-4672,PAYLOAD,2023-04-22 17:39:00,15.08842802,9.13e-05,53.2155,286.6596,93.9823,266.1273,0.00025225,3.729e-05,0.0,0 STARLINK-4672,1 53592U 22104E   23112.73542611  .00003729  00000-0  25225-3 0  9991,2 53592  53.2155 286.6596 0000913  93.9823 266.1273 15.08842802 36112,6917.872,95.437,540.368,539.105,0.0
53592.0,STARLINK-4672,PAYLOAD,2023-04-23 11:08:15,15.08838193,0.0001103,53.2138,283.3876,85.3,274.8118,8.8961e-05,1.128e-05,0.0,0 STARLINK-4672,1 53592U 22104E   23113.46406917  .00001128  00000-0  88961-4 0  9998,2 53592  53.2138 283.3876 0001103  85.3000 274.8118 15.08838193 36226,6917.886,95.438,540.514,538.988,0.0
53592.0,STARLINK-4672,PAYLOAD,2023-04-24 04:37:29,15.08862001,0.0001436,53.2154,280.117,75.8441,284.2711,0.0003957,6.019e-05,0.0,0 STARLINK-4672,1 53592U 22104E   23114.19270116  .00006019  00000-0  39570-3 0  9994,2 53592  53.2154 280.1170 0001436  75.8441 284.2711 15.08862001 36339,6917.813,95.436,540.672,538.685,0.0
53592.0,STARLINK-4672,PAYLOAD,2023-04-25 10:49:49,15.08804441,0.0001475,53.2154,274.4669,104.8661,255.2494,-0.0011248,-0.00018127,0.0,0 STARLINK-4672,1 53592U 22104E   23115.45127096 -.00018127  00000-0 -11248-2 0  9998,2 53592  53.2154 274.4669 0001475 104.8661 255.2494 15.08804441 36529,6917.989,95.44,540.874,538.834,0.0
53592.0,STARLINK-4672,PAYLOAD,2023-04-25 12:25:13,15.08800807,0.0001565,53.2154,274.1698,100.3613,259.7555,-0.001148,-0.00018492,0.0,0 STARLINK-4672,1 53592U 22104E   23115.51751252 -.00018492  00000-0 -11480-2 0  9995,2 53592  53.2154 274.1698 0001565 100.3613 259.7555 15.08800807 37559,6918.0,95.44,540.948,538.783,0.0
53592.0,STARLINK-4672,PAYLOAD,2023-04-26 12:16:04,15.08683785,0.0006037,53.2146,269.7085,301.9393,58.1012,-0.0026411,-0.00041919,0.0,0 STARLINK-4672,1 53592U 22104E   23116.51116504 -.00041919  00000-0 -26411-2 0  9991,2 53592  53.2146 269.7085 0006037 301.9393  58.1012 15.08683785 37703,6918.358,95.447,544.4,536.046,0.0
53592.0,STARLINK-4672,PAYLOAD,2023-04-27 00:00:00,15.08026898,0.0001184,53.2152,267.5171,117.1037,18.8112,-0.00095473,-0.00015115,0.0,0 STARLINK-4672,1 53592U 22104E   23117.00001157 -.00015115  00000-0 -95473-3 0  9997,2 53592  53.2152 267.5171 0001184 117.1037  18.8112 15.08026898  1309,6920.367,95.489,543.051,541.412,0.0
53592.0,STARLINK-4672,PAYLOAD,2023-04-27 14:00:01,15.0799439,0.0001279,53.2156,264.9009,119.403,305.1482,0.0058369,0.00091673,0.0,0 STARLINK-4672,1 53592U 22104E   23117.58335648  .00091673  00000-0  58369-2 0  9998,2 53592  53.2156 264.9009 0001279 119.4030 305.1482 15.07994390  1309,6920.466,95.491,543.216,541.446,0.0
53592.0,STARLINK-4672,PAYLOAD,2023-04-27 22:00:00,15.0803199,0.0001163,53.2154,263.406,98.7744,336.324,0.029807,0.00492115,0.0,0 STARLINK-4672,1 53592U 22104E   23117.91667824  .00492115  00000-0  29807-1 0  9999,2 53592  53.2154 263.4060 0001163  98.7744 336.3240 15.08031990 36890,6920.351,95.489,543.021,541.411,0.0
53592.0,STARLINK-4672,PAYLOAD,2023-04-28 11:58:53,15.0823709,9.5e-05,53.2148,260.792,24.5697,335.534,0.0014363,0.0002227,0.0,0 STARLINK-4672,1 53592U 22104E   23118.49923177  .00022270  00000-0  14363-2 0  9992,2 53592  53.2148 260.7920 0000950  24.5697 335.5340 15.08237090 36986,6919.724,95.476,542.246,540.931,0.0
53592.0,STARLINK-4672,PAYLOAD,2023-04-28 18:20:29,15.08509814,0.0001848,53.2166,259.6125,123.2621,236.8548,0.0098244,0.00158165,0.0,0 STARLINK-4672,1 53592U 22104E   23118.76423405  .00158165  00000-0  98244-2 0  9994,2 53592  53.2166 259.6125 0001848 123.2621 236.8548 15.08509814 37026,6918.89,95.458,542.033,539.476,0.0
53592.0,STARLINK-4672,PAYLOAD,2023-04-29 02:17:26,15.0865337,3.94e-05,53.2153,258.1143,154.6297,205.4714,0.0089608,0.00144526,0.0,0 STARLINK-4672,1 53592U 22104E   23119.09544991  .00144526  00000-0  89608-2 0  9995,2 53592  53.2153 258.1143 0000394 154.6297 205.4714 15.08653370 37077,6918.451,95.449,540.588,540.043,0.0
53592.0,STARLINK-4672,PAYLOAD,2023-04-29 13:25:07,15.08831387,0.0001008,53.2144,256.0353,116.9832,243.1263,0.0026673,0.00042408,0.0,0 STARLINK-4672,1 53592U 22104E   23119.55911665  .00042408  00000-0  26673-2 0  9991,2 53592  53.2144 256.0353 0001008 116.9832 243.1263 15.08831387 37148,6917.907,95.438,540.469,539.074,0.0
53592.0,STARLINK-4672,PAYLOAD,2023-04-29 18:11:16,15.08860367,0.0001026,53.2141,255.143,97.6499,262.4609,0.0015854,0.00025048,0.0,0 STARLINK-4672,1 53592U 22104E   23119.75782814  .00025048  00000-0  15854-2 0  9995,2 53592  53.2141 255.1430 0001026  97.6499 262.4609 15.08860367 37176,6917.818,95.436,540.393,538.973,0.0
53592.0,STARLINK-4672,PAYLOAD,2023-04-30 06:00:00,15.08805336,9.6e-05,53.2139,252.9334,90.8634,64.147,0.0037284,0.00059494,0.0,0 STARLINK-4672,1 53592U 22104E   23120.25001157  .00059494  00000-0  37284-2 0  9999,2 53592  53.2139 252.9334 0000960  90.8634  64.1470 15.08805336 37249,6917.986,95.44,540.515,539.187,0.0
53592.0,STARLINK-4672,PAYLOAD,2023-04-30 13:15:54,15.08847764,0.0001071,53.215,251.5758,73.9559,286.1551,0.0013392,0.00021094,0.0,0 STARLINK-4672,1 53592U 22104E   23120.55271317  .00021094  00000-0  13392-2 0  9998,2 53592  53.2150 251.5758 0001071  73.9559 286.1551 15.08847764 38315,6917.857,95.437,540.463,538.981,0.0
53592.0,STARLINK-4672,PAYLOAD,2023-04-30 21:12:49,15.08852691,9.27e-05,53.2141,250.0871,109.3171,250.7921,0.0010683,0.00016761,0.0,0 STARLINK-4672,1 53592U 22104E   23120.88390957  .00016761  00000-0  10683-2 0  9991,2 53592  53.2141 250.0871 0000927 109.3171 250.7921 15.08852691 37343,6917.842,95.437,540.348,539.065,0.0
53592.0,STARLINK-4672,PAYLOAD,2023-04-30 22:00:00,15.08823889,9.62e-05,53.2139,249.942,78.8771,99.3129,0.00061923,9.577e-05,0.0,0 STARLINK-4672,1 53592U 22104E   23120.91667824  .00009577  00000-0  61923-3 0  9996,2 53592  53.2139 249.9420 0000962  78.8771  99.3129 15.08823889 37346,6917.93,95.439,540.46,539.129,0.0
53592.0,STARLINK-4672,PAYLOAD,2023-05-01 11:31:18,15.08835306,0.0001133,53.2136,247.4113,98.1589,261.9532,0.00080123,0.00012485,0.0,0 STARLINK-4672,1 53592U 22104E   23121.48007500  .00012485  00000-0  80123-3 0  9993,2 53592  53.2136 247.4113 0001133  98.1589 261.9532 15.08835306 37430,6917.895,95.438,540.544,538.976,0.0
53592.0,STARLINK-4672,PAYLOAD,2023-05-01 17:52:51,15.08846888,0.0001025,53.214,246.2226,84.2365,275.8744,0.001422,0.0002242,0.0,0 STARLINK-4672,1 53592U 22104E   23121.74503605  .00022420  00000-0  14220-2 0  9993,2 53592  53.2140 246.2226 0001025  84.2365 275.8744 15.08846888 38498,6917.859,95.437,540.433,539.015,0.0
53592.0,STARLINK-4672,PAYLOAD,2023-05-02 12:57:28,15.08853159,0.0001278,53.2142,242.6549,72.5165,287.5967,0.00060472,9.353e-05,0.0,0 STARLINK-4672,1 53592U 22104E   23122.53991356  .00009353  00000-0  60472-3 0  9996,2 53592  53.2142 242.6549 0001278  72.5165 287.5967 15.08853159 37592,6917.84,95.437,540.589,538.821,0.0
